NORAD_CAT_ID,OBJECT_NAME,OBJECT_TYPE,EPOCH,MEAN_MOTION,ECCENTRICITY,INCLINATION,RA_OF_ASC_NODE,ARG_OF_PERICENTER,MEAN_ANOMALY,BSTAR,MEAN_MOTION_DOT,MEAN_MOTION_DDOT,TLE_LINE0,TLE_LINE1,TLE_LINE2,SEMIMAJOR_AXIS,PERIOD,APOGEE,PERIGEE,DECAYED
50187.0,STARLINK-3272,PAYLOAD,2022-10-30 06:42:49,15.08844911,0.000177,53.2182,344.684,41.4291,318.6835,-5.1786e-06,-3.71e-06,0.0,0 STARLINK-3272,1 50187U 21125AH  22303.27973832 -.00000371  00000-0 -51786-5 0  9998,2 50187  53.2182 344.6840 0001770  41.4291 318.6835 15.08844911 51572,6917.865,95.437,540.955,538.506,0.0
50187.0,STARLINK-3272,PAYLOAD,2022-10-31 11:19:46,15.08839344,0.0002086999999999,53.2179,339.3301,45.7546,314.3617,6.0955e-05,6.82e-06,0.0,0 STARLINK-3272,1 50187U 21125AH  22304.47206478  .00000682  00000-0  60955-4 0  9996,2 50187  53.2179 339.3301 0002087  45.7546 314.3617 15.08839344 51758,6917.882,95.438,541.191,538.304,0.0
50187.0,STARLINK-3272,PAYLOAD,2022-10-31 19:16:42,15.08836566,0.0002251,53.2183,337.8437,44.5201,315.5972,5.1104e-05,5.25e-06,0.0,0 STARLINK-3272,1 50187U 21125AH  22304.80326821  .00000525  00000-0  51104-4 0  9990,2 50187  53.2183 337.8437 0002251  44.5201 315.5972 15.08836566 51800,6917.891,95.438,541.313,538.1990000000002,0.0
50187.0,STARLINK-3272,PAYLOAD,2022-11-01 11:10:34,15.0882957,0.0002281,53.2177,334.87,39.6825,320.4334,3.0247e-05,1.93e-06,0.0,0 STARLINK-3272,1 50187U 21125AH  22305.46567555  .00000193  00000-0  30247-4 0  9990,2 50187  53.2177 334.8700 0002281  39.6825 320.4334 15.08829570 48825,6917.9119999999975,95.438,541.355,538.1990000000002,0.0
50187.0,STARLINK-3272,PAYLOAD,2022-11-01 23:53:38,15.08843633,0.0002177999999999,53.2181,332.4919,45.6479,314.4691,0.00012179,1.651e-05,0.0,0 STARLINK-3272,1 50187U 21125AH  22305.99558709  .00001651  00000-0  12179-3 0  9992,2 50187  53.2181 332.4919 0002178  45.6479 314.4691 15.08843633 48907,6917.869000000002,95.437,541.241,538.2280000000002,0.0
50187.0,STARLINK-3272,PAYLOAD,2022-11-02 09:25:58,15.08836919,0.0002392,53.2185,330.7081,39.8319,320.2848,2.0567e-05,3.9e-07,0.0,0 STARLINK-3272,1 50187U 21125AH  22306.39303580  .00000039  00000-0  20567-4 0  9992,2 50187  53.2185 330.7081 0002392  39.8319 320.2848 15.08836919 48962,6917.89,95.438,541.41,538.1,0.0
50187.0,STARLINK-3272,PAYLOAD,2022-11-02 18:58:17,15.08831505,0.0002274,53.2179,328.9252,43.3702,316.7469,-4.0622e-05,-9.35e-06,0.0,0 STARLINK-3272,1 50187U 21125AH  22306.79048240 -.00000935  00000-0 -40622-4 0  9996,2 50187  53.2179 328.9252 0002274  43.3702 316.7469 15.08831505 49022,6917.906,95.438,541.344,538.198,0.0
50187.0,STARLINK-3272,PAYLOAD,2022-11-03 01:19:49,15.08837441,0.0002307,53.2169,327.7384,41.7349,318.3818,5.8542e-06,-1.95e-06,0.0,0 STARLINK-3272,1 50187U 21125AH  22307.05543855 -.00000195  00000-0  58542-5 0  9996,2 50187  53.2169 327.7384 0002307  41.7349 318.3818 15.08837441 49065,6917.888000000001,95.438,541.349,538.1569999999998,0.0
50187.0,STARLINK-3272,PAYLOAD,2022-11-03 07:41:21,15.08844787,0.0001965,53.2177,326.5458,49.0931,311.0231,0.00014559,2.03e-05,0.0,0 STARLINK-3272,1 50187U 21125AH  22307.32038886  .00002030  00000-0  14559-3 0  9996,2 50187  53.2177 326.5458 0001965  49.0931 311.0231 15.08844787 49105,6917.866,95.437,541.09,538.371,0.0
50187.0,STARLINK-3272,PAYLOAD,2022-11-04 01:10:35,15.08856573,0.0002294,53.2168,323.2763,37.8044,322.3109,9.1709e-05,1.172e-05,0.0,0 STARLINK-3272,1 50187U 21125AH  22308.04901972  .00001172  00000-0  91709-4 0  9990,2 50187  53.2168 323.2763 0002294  37.8044 322.3109 15.08856573 49211,6917.83,95.437,541.2819999999998,538.1080000000002,0.0
50187.0,STARLINK-3272,PAYLOAD,2022-11-04 07:32:08,15.08851489,0.0002146,53.2162,322.0847,42.2217,317.894,4.2977e-05,3.96e-06,0.0,0 STARLINK-3272,1 50187U 21125AH  22308.31398174  .00000396  00000-0  42977-4 0  9994,2 50187  53.2162 322.0847 0002146  42.2217 317.8940 15.08851489 49250,6917.845,95.437,541.195,538.226,0.0
50187.0,STARLINK-3272,PAYLOAD,2022-11-04 18:39:50,15.08837731,0.0002088,53.216,320.0031,38.8203,321.2939,8.3385e-05,1.039e-05,0.0,0 STARLINK-3272,1 50187U 21125AH  22308.77766795  .00001039  00000-0  83385-4 0  9995,2 50187  53.2160 320.0031 0002088  38.8203 321.2939 15.08837731 49321,6917.887,95.438,541.197,538.308,0.0
50187.0,STARLINK-3272,PAYLOAD,2022-11-05 07:22:55,15.08841664,0.0002011,53.2173,317.6237,43.8829,316.2322,1.3251e-05,-7.7e-07,0.0,0 STARLINK-3272,1 50187U 21125AH  22309.30758771 -.00000077  00000-0  13251-4 0  9997,2 50187  53.2173 317.6237 0002011  43.8829 316.2322 15.08841664 52482,6917.875,95.437,541.131,538.349,0.0
50187.0,STARLINK-3272,PAYLOAD,2022-11-06 04:02:57,15.08828461,0.0002033,53.2174,313.7591,40.4294,319.6849,-0.00010081,-1.892e-05,0.0,0 STARLINK-3272,1 50187U 21125AH  22310.16872141 -.00001892  00000-0 -10081-3 0  9995,2 50187  53.2174 313.7591 0002033  40.4294 319.6849 15.08828461 49539,6917.916,95.438,541.187,538.374,0.0
50187.0,STARLINK-3272,PAYLOAD,2022-11-06 05:38:20,15.08829092,0.0002055,53.2173,313.4616,40.22,319.8944,-9.4247e-05,-1.787e-05,0.0,0 STARLINK-3272,1 50187U 21125AH  22310.23496126 -.00001787  00000-0 -94247-4 0  9998,2 50187  53.2173 313.4616 0002055  40.2200 319.8944 15.08829092 52625,6917.9140000000025,95.438,541.2,538.357,0.0
50187.0,STARLINK-3272,PAYLOAD,2022-11-06 19:56:48,15.08834022,0.0002082,53.2175,310.7851,43.6407,316.475,7.2152e-05,8.599999999999999e-06,0.0,0 STARLINK-3272,1 50187U 21125AH  22310.83111514  .00000860  00000-0  72152-4 0  9999,2 50187  53.2175 310.7851 0002082  43.6407 316.4750 15.08834022 49638,6917.899,95.438,541.2040000000002,538.323,0.0
50187.0,STARLINK-3272,PAYLOAD,2022-11-07 19:47:36,15.08822085,0.000222,53.2178,306.3257,38.8174,321.2977,6.4457e-05,7.37e-06,0.0,0 STARLINK-3272,1 50187U 21125AH  22311.82473244  .00000737  00000-0  64457-4 0  9992,2 50187  53.2178 306.3257 0002220  38.8174 321.2977 15.08822085 49780,6917.935,95.439,541.336,538.264,0.0
50187.0,STARLINK-3272,PAYLOAD,2022-11-08 06:55:17,15.088414000000002,0.0002202,53.2182,304.2455,37.7797,322.335,0.00020516,2.979e-05,0.0,0 STARLINK-3272,1 50187U 21125AH  22312.28839927  .00002979  00000-0  20516-3 0  9994,2 50187  53.2182 304.2455 0002202  37.7797 322.3350 15.08841400 49858,6917.876,95.437,541.264,538.2180000000002,0.0
50187.0,STARLINK-3272,PAYLOAD,2022-11-08 08:30:40,15.08845618,0.0002262,53.2175,303.9458,38.6363,321.4791,0.00025192,3.724e-05,0.0,0 STARLINK-3272,1 50187U 21125AH  22312.35463568  .00003724  00000-0  25192-3 0  9990,2 50187  53.2175 303.9458 0002262  38.6363 321.4791 15.08845618 52942,6917.863,95.437,541.293,538.163,0.0
50187.0,STARLINK-3272,PAYLOAD,2022-11-08 16:27:35,15.0885764,0.0002173,53.2177,302.4591,42.3365,317.7794,0.00024303,3.584e-05,0.0,0 STARLINK-3272,1 50187U 21125AH  22312.68582804  .00003584  00000-0  24303-3 0  9998,2 50187  53.2177 302.4591 0002173  42.3365 317.7794 15.08857640 49913,6917.826,95.436,541.195,538.188,0.0
50187.0,STARLINK-3272,PAYLOAD,2022-11-09 06:46:03,15.08870343,0.0002159,53.2166,299.782,40.9754,319.14,0.00045233,6.924e-05,0.0,0 STARLINK-3272,1 50187U 21125AH  22313.28198114  .00006924  00000-0  45233-3 0  9998,2 50187  53.2166 299.7820 0002159  40.9754 319.1400 15.08870343 53082,6917.788000000001,95.436,541.146,538.159,0.0
50187.0,STARLINK-3272,PAYLOAD,2022-11-09 17:53:45,15.08845757,0.0002038,53.2171,297.7022,38.4408,321.6729,-2.490800000000001e-05,-6.85e-06,0.0,0 STARLINK-3272,1 50187U 21125AH  22313.74566904 -.00000685  00000-0 -24908-4 0  9992,2 50187  53.2171 297.7022 0002038  38.4408 321.6729 15.08845757 50073,6917.863,95.437,541.138,538.318,0.0
50187.0,STARLINK-3272,PAYLOAD,2022-11-10 06:36:50,15.08832063,0.0001814,53.216,295.3213,51.2456,308.8698,-0.00010143,-1.902e-05,0.0,0 STARLINK-3272,1 50187U 21125AH  22314.27558686 -.00001902  00000-0 -10143-3 0  9997,2 50187  53.2160 295.3213 0001814  51.2456 308.8698 15.08832063 53233,6917.905,95.438,541.025,538.515,0.0
50187.0,STARLINK-3272,PAYLOAD,2022-11-10 19:19:56,15.08839028,0.0002063,53.2163,292.9429,44.3151,315.8006,0.00025388,3.755e-05,0.0,0 STARLINK-3272,1 50187U 21125AH  22314.80551004  .00003755  00000-0  25388-3 0  9996,2 50187  53.2163 292.9429 0002063  44.3151 315.8006 15.08839028 53318,6917.8830000000025,95.438,541.1759999999998,538.321,0.0
50187.0,STARLINK-3272,PAYLOAD,2022-11-11 04:52:15,15.08828628,0.0002007,53.2168,291.1582,43.0718,317.0431,0.00014119,1.959e-05,0.0,0 STARLINK-3272,1 50187U 21125AH  22315.20295600  .00001959  00000-0  14119-3 0  9992,2 50187  53.2168 291.1582 0002007  43.0718 317.0431 15.08828628 50291,6917.915,95.438,541.169,538.3919999999998,0.0
50187.0,STARLINK-3272,PAYLOAD,2022-11-11 08:03:01,15.08834766,0.0002072,53.2166,290.5635,44.2302,315.8855,0.00016633,2.36e-05,0.0,0 STARLINK-3272,1 50187U 21125AH  22315.33543529  .00002360  00000-0  16633-3 0  9992,2 50187  53.2166 290.5635 0002072  44.2302 315.8855 15.08834766 53395,6917.896,95.438,541.195,538.328,0.0
50187.0,STARLINK-3272,PAYLOAD,2022-11-12 04:43:02,15.0884464,0.000211,53.2165,286.698,44.799,315.3172,0.00039203,5.957e-05,0.0,0 STARLINK-3272,1 50187U 21125AH  22316.19655582  .00005957  00000-0  39203-3 0  9993,2 50187  53.2165 286.6980 0002110  44.7990 315.3172 15.08844640 50446,6917.866,95.437,541.191,538.2719999999998,0.0
50187.0,STARLINK-3272,PAYLOAD,2022-11-12 22:12:17,15.08838159,0.000211,53.2165,283.4268,46.8336,313.2833,0.00017244,2.457e-05,0.0,0 STARLINK-3272,1 50187U 21125AH  22316.92519895  .00002457  00000-0  17244-3 0  9993,2 50187  53.2165 283.4268 0002110  46.8336 313.2833 15.08838159 53630,6917.886,95.438,541.211,538.2909999999998,0.0
50187.0,STARLINK-3272,PAYLOAD,2022-11-13 04:33:49,15.08844978,0.0002257,53.2171,282.2384,36.528,323.5865,0.00021904,3.2e-05,0.0,0 STARLINK-3272,1 50187U 21125AH  22317.19015615  .00003200  00000-0  21904-3 0  9999,2 50187  53.2171 282.2384 0002257  36.5280 323.5865 15.08844978 50596,6917.865,95.437,541.2919999999998,538.169,0.0
